NORAD_CAT_ID,OBJECT_NAME,OBJECT_TYPE,EPOCH,MEAN_MOTION,ECCENTRICITY,INCLINATION,RA_OF_ASC_NODE,ARG_OF_PERICENTER,MEAN_ANOMALY,BSTAR,MEAN_MOTION_DOT,MEAN_MOTION_DDOT,TLE_LINE0,TLE_LINE1,TLE_LINE2,SEMIMAJOR_AXIS,PERIOD,APOGEE,PERIGEE,DECAYED
54157.0,STARLINK-5290,PAYLOAD,2023-11-12 23:55:23,15.08846418,0.0001713,53.2158,219.6196,77.1803,282.938,0.00027554,4.101e-05,0.0,0 STARLINK-5290,1 54157U 22141A   23316.99679448  .00004101  00000-0  27554-3 0  9995,2 54157  53.2158 219.6196 0001713  77.1803 282.9380 15.08846418 57740,6917.861,95.437,540.911,538.541,0.0
54157.0,STARLINK-5290,PAYLOAD,2023-11-13 11:03:05,15.08849415,0.0001733,53.2154,217.5385,73.8183,286.2999,0.00079464,0.00012385,0.0,0 STARLINK-5290,1 54157U 22141A   23317.46047859  .00012385  00000-0  79464-3 0  9993,2 54157  53.2154 217.5385 0001733  73.8183 286.2999 15.08849415 57810,6917.852,95.437,540.915,538.518,0.0
54157.0,STARLINK-5290,PAYLOAD,2023-11-14 02:56:56,15.08842929,0.0002003,53.2167,214.563,86.8896,273.2325,0.00030286,4.536e-05,0.0,0 STARLINK-5290,1 54157U 22141A   23318.12288043  .00004536  00000-0  30286-3 0  9997,2 54157  53.2167 214.5630 0002003  86.8896 273.2325 15.08842929 57913,6917.871,95.437,541.122,538.351,0.0
54157.0,STARLINK-5290,PAYLOAD,2023-11-14 10:53:52,15.08839043,0.000204,53.2173,213.0748,95.1787,264.9438,0.00019462,2.81e-05,0.0,0 STARLINK-5290,1 54157U 22141A   23318.45408221  .00002810  00000-0  19462-3 0  9991,2 54157  53.2173 213.0748 0002040  95.1787 264.9438 15.08839043 57967,6917.883,95.438,541.16,538.337,0.0
54157.0,STARLINK-5290,PAYLOAD,2023-11-15 02:47:43,15.08842297,0.0002114,53.2182,210.1011,93.0794,267.044,7.6278e-05,9.26e-06,0.0,0 STARLINK-5290,1 54157U 22141A   23319.11648066  .00000926  00000-0  76278-4 0  9993,2 54157  53.2182 210.1011 0002114  93.0794 267.0440 15.08842297 58069,6917.873,95.437,541.201,538.276,0.0
54157.0,STARLINK-5290,PAYLOAD,2023-11-16 02:38:28,15.08897924,0.0001967,53.2175,205.6388,102.1969,257.9243,0.00094842,0.00014862,0.0,0 STARLINK-5290,1 54157U 22141A   23320.11005085  .00014862  00000-0  94842-3 0  9993,2 54157  53.2175 205.6388 0001967 102.1969 257.9243 15.08897924 58211,6917.703,95.434,540.929,538.208,0.0
54157.0,STARLINK-5290,PAYLOAD,2023-11-16 16:56:58,15.0883986,0.0001462,53.2189,202.9652,99.8903,260.2254,-2.9954e-06,-3.36e-06,0.0,0 STARLINK-5290,1 54157U 22141A   23320.70622975 -.00000336  00000-0 -29954-5 0  9998,2 54157  53.2189 202.9652 0001462  99.8903 260.2254 15.08839860 58304,6917.881,95.438,540.757,538.734,0.0
54157.0,STARLINK-5290,PAYLOAD,2023-11-16 23:18:31,15.0882734,0.0001949,53.2163,201.7773,87.9395,272.182,-0.00020743,-3.587e-05,0.0,0 STARLINK-5290,1 54157U 22141A   23320.97119848 -.00003587  00000-0 -20743-3 0  9993,2 54157  53.2163 201.7773 0001949  87.9395 272.1820 15.08827340 58345,6917.919,95.438,541.132,538.436,0.0
54157.0,STARLINK-5290,PAYLOAD,2023-11-17 08:50:50,15.08828807,0.0002234,53.2151,199.9931,90.9137,269.2111,-0.00023978,-4.101e-05,0.0,0 STARLINK-5290,1 54157U 22141A   23321.36863927 -.00004101  00000-0 -23978-3 0  9997,2 54157  53.2151 199.9931 0002234  90.9137 269.2111 15.08828807 58408,6917.915,95.438,541.325,538.234,0.0
54157.0,STARLINK-5290,PAYLOAD,2023-11-17 16:47:45,15.08848653,0.0001942,53.2159,198.5054,90.8361,269.2854,-0.00068803,-0.00011224,0.0,0 STARLINK-5290,1 54157U 22141A   23321.69983282 -.00011224  00000-0 -68803-3 0  9990,2 54157  53.2159 198.5054 0001942  90.8361 269.2854 15.08848653 58450,6917.854,95.437,541.062,538.375,0.0
54157.0,STARLINK-5290,PAYLOAD,2023-11-17 23:09:18,15.08848225,0.0001964,53.2164,197.3172,93.0268,267.0949,-0.0005587,-9.171e-05,0.0,0 STARLINK-5290,1 54157U 22141A   23321.96479177 -.00009171  00000-0 -55870-3 0  9991,2 54157  53.2164 197.3172 0001964  93.0268 267.0949 15.08848225 58499,6917.855,95.437,541.079,538.362,0.0
54157.0,STARLINK-5290,PAYLOAD,2023-11-18 08:41:37,15.08845388,0.0002013,53.2161,195.5327,92.8947,267.2276,-0.00032634,-5.479e-05,0.0,0 STARLINK-5290,1 54157U 22141A   23322.36223382 -.00005479  00000-0 -32634-3 0  9991,2 54157  53.2161 195.5327 0002013  92.8947 267.2276 15.08845388 58554,6917.864,95.437,541.121,538.336,0.0
54157.0,STARLINK-5290,PAYLOAD,2023-11-19 02:10:52,15.08839524,0.000203,53.2151,192.2615,88.1189,272.0035,0.00036728,5.562e-05,0.0,0 STARLINK-5290,1 54157U 22141A   23323.09088544  .00005562  00000-0  36728-3 0  9990,2 54157  53.2151 192.2615 0002030  88.1189 272.0035 15.08839524 58666,6917.882,95.438,541.151,538.343,0.0
54157.0,STARLINK-5290,PAYLOAD,2023-11-19 21:15:30,15.08844655,0.0002015,53.2148,188.6927,88.2687,271.8536,0.0002555,3.781e-05,0.0,0 STARLINK-5290,1 54157U 22141A   23323.88576453  .00003781  00000-0  25550-3 0  9990,2 54157  53.2148 188.6927 0002015  88.2687 271.8536 15.08844655 58781,6917.866,95.437,541.125,538.337,0.0
54157.0,STARLINK-5290,PAYLOAD,2023-11-20 08:23:12,15.08842337,0.0001997,53.2153,186.6113,87.786,272.3361,0.00016881,2.4e-05,0.0,0 STARLINK-5290,1 54157U 22141A   23324.34944586  .00002400  00000-0  16881-3 0  9992,2 54157  53.2153 186.6113 0001997  87.7860 272.3361 15.08842337 58852,6917.873,95.437,541.12,538.357,0.0
54157.0,STARLINK-5290,PAYLOAD,2023-11-20 21:06:17,15.0884038,0.0002013,53.2157,184.2323,91.5811,268.5412,8.6233e-05,1.084e-05,0.0,0 STARLINK-5290,1 54157U 22141A   23324.87936662  .00001084  00000-0  86233-4 0  9992,2 54157  53.2157 184.2323 0002013  91.5811 268.5412 15.08840380 58931,6917.879,95.438,541.137,538.352,0.0
54157.0,STARLINK-5290,PAYLOAD,2023-11-21 08:13:59,15.08841698,0.0002095,53.2157,182.1505,89.2397,270.8836,0.00014834,2.074e-05,0.0,0 STARLINK-5290,1 54157U 22141A   23325.34304803  .00002074  00000-0  14834-3 0  9998,2 54157  53.2157 182.1505 0002095  89.2397 270.8836 15.08841698 59001,6917.875,95.437,541.189,538.291,0.0
54157.0,STARLINK-5290,PAYLOAD,2023-11-21 20:57:04,15.08847209,0.0002105,53.2149,179.7707,92.4469,267.6765,0.00026838,3.987e-05,0.0,0 STARLINK-5290,1 54157U 22141A   23325.87296628  .00003987  00000-0  26838-3 0  9992,2 54157  53.2149 179.7707 0002105  92.4469 267.6765 15.08847209 59083,6917.858,95.437,541.18,538.267,0.0
54157.0,STARLINK-5290,PAYLOAD,2023-11-22 00:07:50,15.08850113,0.0002072,53.2156,179.1771,90.0654,270.0576,0.000307,4.602e-05,0.0,0 STARLINK-5290,1 54157U 22141A   23326.00544495  .00004602  00000-0  30700-3 0  9994,2 54157  53.2156 179.1771 0002072  90.0654 270.0576 15.08850113 59108,6917.849,95.437,541.148,538.281,0.0
54157.0,STARLINK-5290,PAYLOAD,2023-11-22 19:12:28,15.08847109,0.0002064,53.2156,175.6069,94.9402,265.1826,0.00022073,3.227e-05,0.0,0 STARLINK-5290,1 54157U 22141A   23326.80032438  .00003227  00000-0  22073-3 0  9997,2 54157  53.2156 175.6069 0002064  94.9402 265.1826 15.08847109 59221,6917.859,95.437,541.152,538.296,0.0
54157.0,STARLINK-5290,PAYLOAD,2023-11-23 14:17:06,15.08831461,0.0002115,53.2164,172.0401,95.3144,264.809,-0.00011983,-2.194e-05,0.0,0 STARLINK-5290,1 54157U 22141A   23327.59521158 -.00002194  00000-0 -11983-3 0  9998,2 54157  53.2164 172.0401 0002115  95.3144 264.8090 15.08831461 59342,6917.906,95.438,541.235,538.308,0.0
54157.0,STARLINK-5290,PAYLOAD,2023-11-23 19:03:16,15.08830924,0.0002071,53.2172,171.1477,98.1444,261.9783,-6.0348e-05,-1.248e-05,0.0,0 STARLINK-5290,1 54157U 22141A   23327.79393762 -.00001248  00000-0 -60348-4 0  9997,2 54157  53.2172 171.1477 0002071  98.1444 261.9783 15.08830924 59372,6917.908,95.438,541.206,538.34,0.0
54157.0,STARLINK-5290,PAYLOAD,2023-11-23 20:38:39,15.08831699,0.0001976,53.2168,170.8501,93.0526,267.0692,-8.6028e-05,-1.657e-05,0.0,0 STARLINK-5290,1 54157U 22141A   23327.86017823 -.00001657  00000-0 -86028-4 0  9993,2 54157  53.2168 170.8501 0001976  93.0526 267.0692 15.08831699 59386,6917.906,95.438,541.138,538.404,0.0
54157.0,STARLINK-5290,PAYLOAD,2023-11-24 12:32:30,15.08833441,0.0001867,53.2163,167.8758,88.0676,272.053,-2.2186e-05,-6.41e-06,0.0,0 STARLINK-5290,1 54157U 22141A   23328.52257835 -.00000641  00000-0 -22186-4 0  9993,2 54157  53.2163 167.8758 0001867  88.0676 272.0530 15.08833441 59485,6917.9,95.438,541.057,538.474,0.0
54157.0,STARLINK-5290,PAYLOAD,2023-11-24 18:54:03,15.08833416,0.0001926,53.2167,166.6889,92.89,267.2313,8.0343e-05,9.91e-06,0.0,0 STARLINK-5290,1 54157U 22141A   23328.78753560  .00000991  00000-0  80343-4 0  9992,2 54157  53.2167 166.6889 0001926  92.8900 267.2313 15.08833416 59522,6917.901,95.438,541.098,538.433,0.0
54157.0,STARLINK-5290,PAYLOAD,2023-11-25 09:12:31,15.08835153,0.0001891,53.2167,164.0126,94.1373,265.9836,0.0001573,2.216e-05,0.0,0 STARLINK-5290,1 54157U 22141A   23329.38369466  .00002216  00000-0  15730-3 0  9996,2 54157  53.2167 164.0126 0001891  94.1373 265.9836 15.08835153 59613,6917.895,95.438,541.068,538.452,0.0
54157.0,STARLINK-5290,PAYLOAD,2023-11-25 21:55:35,15.08843569,0.0001942,53.2166,161.6338,94.1725,265.9489,0.00021738,3.174e-05,0.0,0 STARLINK-5290,1 54157U 22141A   23329.91361087  .00003174  00000-0  21738-3 0  9995,2 54157  53.2166 161.6338 0001942  94.1725 265.9489 15.08843569 59690,6917.869,95.437,541.078,538.391,0.0
54157.0,STARLINK-5290,PAYLOAD,2023-11-26 18:35:37,15.08843279,0.0001967,53.216,157.766,99.6303,260.4911,4.9897e-05,5.06e-06,0.0,0 STARLINK-5290,1 54157U 22141A   23330.77473418  .00000506  00000-0  49897-4 0  9996,2 54157  53.2160 157.7660 0001967  99.6303 260.4911 15.08843279 59820,6917.87,95.437,541.096,538.375,0.0
54157.0,STARLINK-5290,PAYLOAD,2023-11-26 21:46:23,15.08842498,0.0001931,53.2161,157.1717,96.4646,263.6566,4.2353e-05,3.86e-06,0.0,0 STARLINK-5290,1 54157U 22141A   23330.90721445  .00000386  00000-0  42353-4 0  9993,2 54157  53.2161 157.1717 0001931  96.4646 263.6566 15.08842498 59849,6917.873,95.437,541.074,538.402,0.0
54157.0,STARLINK-5290,PAYLOAD,2023-11-27 12:04:51,15.08852591,0.0001875,53.2161,154.495,94.8179,265.3027,-0.0001311,-2.375e-05,0.0,0 STARLINK-5290,1 54157U 22141A   23331.50337296 -.00002375  00000-0 -13110-3 0  9997,2 54157  53.2161 154.4950 0001875  94.8179 265.3027 15.08852591 59934,6917.842,95.437,541.004,538.41,0.0
